ISS (ZARYA)             
1 25544U 98067A   25300.49027535  .00014988  00000+0  27461-3 0  9997
2 25544  51.6345  11.4513 0004696 345.5380  14.5474 15.49520571535685
CSS (TIANHE)            
1 48274U 21035A   25300.35149447  .00033995  00000+0  39819-3 0  9994
2 48274  41.4667 298.4948 0010887 291.8902  68.0779 15.60759072256781
ISS (NAUKA)             
1 49044U 21066A   25300.16780669  .00014439  00000+0  26496-3 0  9999
2 49044  51.6344  13.0478 0004675 344.0892  15.9949 15.49510292230449
FREGAT DEB              
1 49271U 11037PF  25300.08622419  .00000081  00000+0  37791-3 0  9995
2 49271  51.6267 337.3784 0894951 123.1118 245.8879 12.33751980196176
CSS (WENTIAN)           
1 53239U 22085A   25300.28750648  .00034313  00000+0  40192-3 0  9991
2 53239  41.4668 298.8842 0010900 291.5284  68.4393 15.60754660173841
CSS (MENGTIAN)          
1 54216U 22143A   25300.28750648  .00034313  00000+0  40192-3 0  9992
2 54216  41.4668 298.8842 0010900 291.5284  68.4393 15.60754660158648
SOYUZ-MS 27             
1 63520U 25072A   25300.16780669  .00014439  00000+0  26496-3 0  9995
2 63520  51.6344  13.0478 0004675 344.0892  15.9949 15.49510292 20205
SHENZHOU-20 (SZ-20)     
1 63632U 25082A   25300.28750648  .00034313  00000+0  40192-3 0  9999
2 63632  41.4668 298.8842 0010900 291.5284  68.4393 15.60754660255301
PROGRESS-MS 31          
1 64751U 25146A   25300.16780669  .00014439  00000+0  26496-3 0  9994
2 64751  51.6344  13.0478 0004675 344.0892  15.9949 15.49510292  6756
TIANZHOU-9              
1 64786U 25149A   25300.28750648  .00034313  00000+0  40192-3 0  9994
2 64786  41.4668 298.8842 0010900 291.5284  68.4393 15.60754660255302
CREW DRAGON 11          
1 65077U 25166A   25300.16780669  .00014439  00000+0  26496-3 0  9998
2 65077  51.6344  13.0478 0004675 344.0892  15.9949 15.49510292  2147
DRAGON CRS-33           
1 65304U 25186A   25300.16780669  .00014439  00000+0  26496-3 0  9993
2 65304  51.6344  13.0478 0004675 344.0892  15.9949 15.49510292   115
