CCSDS_OMM_VERS = 2.0
CREATION_DATE  = 
ORIGINATOR     = 

OBJECT_NAME    = ISS (ZARYA)
OBJECT_ID      = 1998-067A
CENTER_NAME    = EARTH
REF_FRAME      = TEME
TIME_SYSTEM    = UTC
MEAN_ELEMENT_THEORY = SGP/SGP4

EPOCH          = 2025-10-27T11:45:59.790240
MEAN_MOTION    = 15.49520571
ECCENTRICITY   = .0004696
INCLINATION    = 51.6345
RA_OF_ASC_NODE = 11.4513
ARG_OF_PERICENTER = 345.5380
MEAN_ANOMALY   = 14.5474

EPHEMERIS_TYPE = 0
CLASSIFICATION_TYPE = U
NORAD_CAT_ID   = 25544
ELEMENT_SET_NO = 999
REV_AT_EPOCH   = 53568
BSTAR          = .27461E-3
MEAN_MOTION_DOT = .14988E-3
MEAN_MOTION_DDOT = 0

CCSDS_OMM_VERS = 2.0
CREATION_DATE  = 
ORIGINATOR     = 

OBJECT_NAME    = CSS (TIANHE)
OBJECT_ID      = 2021-035A
CENTER_NAME    = EARTH
REF_FRAME      = TEME
TIME_SYSTEM    = UTC
MEAN_ELEMENT_THEORY = SGP/SGP4

EPOCH          = 2025-10-27T08:26:09.122208
MEAN_MOTION    = 15.60759072
ECCENTRICITY   = .0010887
INCLINATION    = 41.4667
RA_OF_ASC_NODE = 298.4948
ARG_OF_PERICENTER = 291.8902
MEAN_ANOMALY   = 68.0779

EPHEMERIS_TYPE = 0
CLASSIFICATION_TYPE = U
NORAD_CAT_ID   = 48274
ELEMENT_SET_NO = 999
REV_AT_EPOCH   = 25678
BSTAR          = .39819E-3
MEAN_MOTION_DOT = .33995E-3
MEAN_MOTION_DDOT = 0

CCSDS_OMM_VERS = 2.0
CREATION_DATE  = 
ORIGINATOR     = 

OBJECT_NAME    = ISS (NAUKA)
OBJECT_ID      = 2021-066A
CENTER_NAME    = EARTH
REF_FRAME      = TEME
TIME_SYSTEM    = UTC
MEAN_ELEMENT_THEORY = SGP/SGP4

EPOCH          = 2025-10-27T04:01:38.498016
MEAN_MOTION    = 15.49510292
ECCENTRICITY   = .00046759
INCLINATION    = 51.6344
RA_OF_ASC_NODE = 13.0478
ARG_OF_PERICENTER = 344.0892
MEAN_ANOMALY   = 15.9949

EPHEMERIS_TYPE = 0
CLASSIFICATION_TYPE = U
NORAD_CAT_ID   = 49044
ELEMENT_SET_NO = 999
REV_AT_EPOCH   = 23044
BSTAR          = .26496221E-3
MEAN_MOTION_DOT = .14439E-3
MEAN_MOTION_DDOT = 0

CCSDS_OMM_VERS = 2.0
CREATION_DATE  = 
ORIGINATOR     = 

OBJECT_NAME    = FREGAT DEB
OBJECT_ID      = 2011-037PF
CENTER_NAME    = EARTH
REF_FRAME      = TEME
TIME_SYSTEM    = UTC
MEAN_ELEMENT_THEORY = SGP/SGP4

EPOCH          = 2025-10-27T02:04:09.770016
MEAN_MOTION    = 12.33751980
ECCENTRICITY   = .08949517
INCLINATION    = 51.6267
RA_OF_ASC_NODE = 337.3784
ARG_OF_PERICENTER = 123.1118
MEAN_ANOMALY   = 245.8879

EPHEMERIS_TYPE = 0
CLASSIFICATION_TYPE = U
NORAD_CAT_ID   = 49271
ELEMENT_SET_NO = 999
REV_AT_EPOCH   = 19617
BSTAR          = .37790729E-3
MEAN_MOTION_DOT = .81E-6
MEAN_MOTION_DDOT = 0

CCSDS_OMM_VERS = 2.0
CREATION_DATE  = 
ORIGINATOR     = 

OBJECT_NAME    = CSS (WENTIAN)
OBJECT_ID      = 2022-085A
CENTER_NAME    = EARTH
REF_FRAME      = TEME
TIME_SYSTEM    = UTC
MEAN_ELEMENT_THEORY = SGP/SGP4

EPOCH          = 2025-10-27T06:54:00.559872
MEAN_MOTION    = 15.60754660
ECCENTRICITY   = .00109002
INCLINATION    = 41.4668
RA_OF_ASC_NODE = 298.8842
ARG_OF_PERICENTER = 291.5284
MEAN_ANOMALY   = 68.4393

EPHEMERIS_TYPE = 0
CLASSIFICATION_TYPE = U
NORAD_CAT_ID   = 53239
ELEMENT_SET_NO = 999
REV_AT_EPOCH   = 17384
BSTAR          = .40191971E-3
MEAN_MOTION_DOT = .34313E-3
MEAN_MOTION_DDOT = 0

CCSDS_OMM_VERS = 2.0
CREATION_DATE  = 
ORIGINATOR     = 

OBJECT_NAME    = CSS (MENGTIAN)
OBJECT_ID      = 2022-143A
CENTER_NAME    = EARTH
REF_FRAME      = TEME
TIME_SYSTEM    = UTC
MEAN_ELEMENT_THEORY = SGP/SGP4

EPOCH          = 2025-10-27T06:54:00.559872
MEAN_MOTION    = 15.60754660
ECCENTRICITY   = .00109002
INCLINATION    = 41.4668
RA_OF_ASC_NODE = 298.8842
ARG_OF_PERICENTER = 291.5284
MEAN_ANOMALY   = 68.4393

EPHEMERIS_TYPE = 0
CLASSIFICATION_TYPE = U
NORAD_CAT_ID   = 54216
ELEMENT_SET_NO = 999
REV_AT_EPOCH   = 15864
BSTAR          = .40191971E-3
MEAN_MOTION_DOT = .34313E-3
MEAN_MOTION_DDOT = 0

CCSDS_OMM_VERS = 2.0
CREATION_DATE  = 
ORIGINATOR     = 

OBJECT_NAME    = SOYUZ-MS 27
OBJECT_ID      = 2025-072A
CENTER_NAME    = EARTH
REF_FRAME      = TEME
TIME_SYSTEM    = UTC
MEAN_ELEMENT_THEORY = SGP/SGP4

EPOCH          = 2025-10-27T04:01:38.498016
MEAN_MOTION    = 15.49510292
ECCENTRICITY   = .00046759
INCLINATION    = 51.6344
RA_OF_ASC_NODE = 13.0478
ARG_OF_PERICENTER = 344.0892
MEAN_ANOMALY   = 15.9949

EPHEMERIS_TYPE = 0
CLASSIFICATION_TYPE = U
NORAD_CAT_ID   = 63520
ELEMENT_SET_NO = 999
REV_AT_EPOCH   = 2020
BSTAR          = .26496221E-3
MEAN_MOTION_DOT = .14439E-3
MEAN_MOTION_DDOT = 0

CCSDS_OMM_VERS = 2.0
CREATION_DATE  = 
ORIGINATOR     = 

OBJECT_NAME    = SHENZHOU-20 (SZ-20)
OBJECT_ID      = 2025-082A
CENTER_NAME    = EARTH
REF_FRAME      = TEME
TIME_SYSTEM    = UTC
MEAN_ELEMENT_THEORY = SGP/SGP4

EPOCH          = 2025-10-27T06:54:00.559872
MEAN_MOTION    = 15.60754660
ECCENTRICITY   = .00109002
INCLINATION    = 41.4668
RA_OF_ASC_NODE = 298.8842
ARG_OF_PERICENTER = 291.5284
MEAN_ANOMALY   = 68.4393

EPHEMERIS_TYPE = 0
CLASSIFICATION_TYPE = U
NORAD_CAT_ID   = 63632
ELEMENT_SET_NO = 999
REV_AT_EPOCH   = 25530
BSTAR          = .40191971E-3
MEAN_MOTION_DOT = .34313E-3
MEAN_MOTION_DDOT = 0

CCSDS_OMM_VERS = 2.0
CREATION_DATE  = 
ORIGINATOR     = 

OBJECT_NAME    = PROGRESS-MS 31
OBJECT_ID      = 2025-146A
CENTER_NAME    = EARTH
REF_FRAME      = TEME
TIME_SYSTEM    = UTC
MEAN_ELEMENT_THEORY = SGP/SGP4

EPOCH          = 2025-10-27T04:01:38.498016
MEAN_MOTION    = 15.49510292
ECCENTRICITY   = .00046759
INCLINATION    = 51.6344
RA_OF_ASC_NODE = 13.0478
ARG_OF_PERICENTER = 344.0892
MEAN_ANOMALY   = 15.9949

EPHEMERIS_TYPE = 0
CLASSIFICATION_TYPE = U
NORAD_CAT_ID   = 64751
ELEMENT_SET_NO = 999
REV_AT_EPOCH   = 675
BSTAR          = .26496221E-3
MEAN_MOTION_DOT = .14439E-3
MEAN_MOTION_DDOT = 0

CCSDS_OMM_VERS = 2.0
CREATION_DATE  = 
ORIGINATOR     = 

OBJECT_NAME    = TIANZHOU-9
OBJECT_ID      = 2025-149A
CENTER_NAME    = EARTH
REF_FRAME      = TEME
TIME_SYSTEM    = UTC
MEAN_ELEMENT_THEORY = SGP/SGP4

EPOCH          = 2025-10-27T06:54:00.559872
MEAN_MOTION    = 15.60754660
ECCENTRICITY   = .00109002
INCLINATION    = 41.4668
RA_OF_ASC_NODE = 298.8842
ARG_OF_PERICENTER = 291.5284
MEAN_ANOMALY   = 68.4393

EPHEMERIS_TYPE = 0
CLASSIFICATION_TYPE = U
NORAD_CAT_ID   = 64786
ELEMENT_SET_NO = 999
REV_AT_EPOCH   = 25530
BSTAR          = .40191971E-3
MEAN_MOTION_DOT = .34313E-3
MEAN_MOTION_DDOT = 0

CCSDS_OMM_VERS = 2.0
CREATION_DATE  = 
ORIGINATOR     = 

OBJECT_NAME    = CREW DRAGON 11
OBJECT_ID      = 2025-166A
CENTER_NAME    = EARTH
REF_FRAME      = TEME
TIME_SYSTEM    = UTC
MEAN_ELEMENT_THEORY = SGP/SGP4

EPOCH          = 2025-10-27T04:01:38.498016
MEAN_MOTION    = 15.49510292
ECCENTRICITY   = .00046759
INCLINATION    = 51.6344
RA_OF_ASC_NODE = 13.0478
ARG_OF_PERICENTER = 344.0892
MEAN_ANOMALY   = 15.9949

EPHEMERIS_TYPE = 0
CLASSIFICATION_TYPE = U
NORAD_CAT_ID   = 65077
ELEMENT_SET_NO = 999
REV_AT_EPOCH   = 214
BSTAR          = .26496221E-3
MEAN_MOTION_DOT = .14439E-3
MEAN_MOTION_DDOT = 0

CCSDS_OMM_VERS = 2.0
CREATION_DATE  = 
ORIGINATOR     = 

OBJECT_NAME    = DRAGON CRS-33
OBJECT_ID      = 2025-186A
CENTER_NAME    = EARTH
REF_FRAME      = TEME
TIME_SYSTEM    = UTC
MEAN_ELEMENT_THEORY = SGP/SGP4

EPOCH          = 2025-10-27T04:01:38.498016
MEAN_MOTION    = 15.49510292
ECCENTRICITY   = .00046759
INCLINATION    = 51.6344
RA_OF_ASC_NODE = 13.0478
ARG_OF_PERICENTER = 344.0892
MEAN_ANOMALY   = 15.9949

EPHEMERIS_TYPE = 0
CLASSIFICATION_TYPE = U
NORAD_CAT_ID   = 65304
ELEMENT_SET_NO = 999
REV_AT_EPOCH   = 11
BSTAR          = .26496221E-3
MEAN_MOTION_DOT = .14439E-3
MEAN_MOTION_DDOT = 0

